{"type": "FeatureCollection", "features": [ {"type": "Feature", "properties": {"norad_id": 66919, "name": "HULIANWANG DIGUI-109", "group": "last-30-days", "lat": -11.912176021262972, "lon": 72.70501720179611, "alt_km": 877.6298858119499, "timestamp": "2025-12-21T03:56:49.617321+00:00", "meta": {"OBJECT_NAME": "HULIANWANG DIGUI-109", "OBJECT_ID": "2025-285E", "EPOCH": "2025-12-20T19:28:41.661120", "MEAN_MOTION": 14.03726053, "ECCENTRICITY": 0.0007882, "INCLINATION": 50.0071, "RA_OF_ASC_NODE": 84.342, "ARG_OF_PERICENTER": 319.3464, "MEAN_ANOMALY": 40.6851, "EPHEMERIS_TYPE": 0, "CLASSIFICATION_TYPE": "U", "NORAD_CAT_ID": 66919, "ELEMENT_SET_NO": 999, "REV_AT_EPOCH": 204, "BSTAR": 0.00010773, "MEAN_MOTION_DOT": 1.9e-07, "MEAN_MOTION_DDOT": 0}, "tle": {"line1": "1 66919U 25285E   25354.81159330  .00000019  00000+0  10773-3 0  9992", "line2": "2 66919  50.0071  84.3420 0007882 319.3464  40.6851 14.03726053  2043"}}, "geometry": {"type": "Point", "coordinates": [72.70501720179611, -11.912176021262972]}}, {"type": "Feature", "properties": {"norad_id": 66920, "name": "HULIANWANG DIGUI-110", "group": "last-30-days", "lat": -8.663039692300798, "lon": 75.55590730307829, "alt_km": 879.1803851789491, "timestamp": "2025-12-21T03:56:49.617330+00:00", "meta": {"OBJECT_NAME": "HULIANWANG DIGUI-110", "OBJECT_ID": "2025-285F", "EPOCH": "2025-12-20T19:27:27.520416", "MEAN_MOTION": 14.03682268, "ECCENTRICITY": 0.0005585, "INCLINATION": 50.0104, "RA_OF_ASC_NODE": 84.3436, "ARG_OF_PERICENTER": 316.5299, "MEAN_ANOMALY": 43.5165, "EPHEMERIS_TYPE": 0, "CLASSIFICATION_TYPE": "U", "NORAD_CAT_ID": 66920, "ELEMENT_SET_NO": 999, "REV_AT_EPOCH": 204, "BSTAR": 8.7821e-05, "MEAN_MOTION_DOT": -1.3e-07, "MEAN_MOTION_DDOT": 0}, "tle": {"line1": "1 66920U 25285F   25354.81073519 -.00000013  00000+0  87821-4 0  9992", "line2": "2 66920  50.0104  84.3436 0005585 316.5299  43.5165 14.03682268  2041"}}, "geometry": {"type": "Point", "coordinates": [75.55590730307829, -8.663039692300798]}}, {"type": "Feature", "properties": {"norad_id": 66921, "name": "HULIANWANG DIGUI-111", "group": "last-30-days", "lat": -5.300778973816309, "lon": 78.43177646215152, "alt_km": 878.320915794462, "timestamp": "2025-12-21T03:56:49.617338+00:00", "meta": {"OBJECT_NAME": "HULIANWANG DIGUI-111", "OBJECT_ID": "2025-285G", "EPOCH": "2025-12-20T17:43:39.670176", "MEAN_MOTION": 14.03631871, "ECCENTRICITY": 0.0006661, "INCLINATION": 50.012, "RA_OF_ASC_NODE": 84.6318, "ARG_OF_PERICENTER": 320.0387, "MEAN_ANOMALY": 40.0027, "EPHEMERIS_TYPE": 0, "CLASSIFICATION_TYPE": "U", "NORAD_CAT_ID": 66921, "ELEMENT_SET_NO": 999, "REV_AT_EPOCH": 203, "BSTAR": 9.5104e-05, "MEAN_MOTION_DOT": -1e-08, "MEAN_MOTION_DDOT": 0}, "tle": {"line1": "1 66921U 25285G   25354.73865359 -.00000001  00000+0  95104-4 0  9995", "line2": "2 66921  50.0120  84.6318 0006661 320.0387  40.0027 14.03631871  2038"}}, "geometry": {"type": "Point", "coordinates": [78.43177646215152, -5.300778973816309]}}, {"type": "Feature", "properties": {"norad_id": 66922, "name": "HULIANWANG DIGUI-112", "group": "last-30-days", "lat": -1.3389493042749436, "lon": 81.75737806728937, "alt_km": 877.6114448133485, "timestamp": "2025-12-21T03:56:49.617347+00:00", "meta": {"OBJECT_NAME": "HULIANWANG DIGUI-112", "OBJECT_ID": "2025-285H", "EPOCH": "2025-12-20T21:07:14.522880", "MEAN_MOTION": 14.03661823, "ECCENTRICITY": 0.0006493, "INCLINATION": 50.0093, "RA_OF_ASC_NODE": 84.0399, "ARG_OF_PERICENTER": 331.1761, "MEAN_ANOMALY": 28.8784, "EPHEMERIS_TYPE": 0, "CLASSIFICATION_TYPE": "U", "NORAD_CAT_ID": 66922, "ELEMENT_SET_NO": 999, "REV_AT_EPOCH": 205, "BSTAR": 9.6359e-05, "MEAN_MOTION_DOT": 1e-08, "MEAN_MOTION_DDOT": 0}, "tle": {"line1": "1 66922U 25285H   25354.88002920  .00000001  00000+0  96359-4 0  9991", "line2": "2 66922  50.0093  84.0399 0006493 331.1761  28.8784 14.03661823  2059"}}, "geometry": {"type": "Point", "coordinates": [81.75737806728937, -1.3389493042749436]}}, {"type": "Feature", "properties": {"norad_id": 66923, "name": "HULIANWANG DIGUI-113", "group": "last-30-days", "lat": 3.0521221155437313, "lon": 85.43743120013809, "alt_km": 878.1883756290163, "timestamp": "2025-12-21T03:56:49.617358+00:00", "meta": {"OBJECT_NAME": "HULIANWANG DIGUI-113", "OBJECT_ID": "2025-285J", "EPOCH": "2025-12-20T21:05:37.315968", "MEAN_MOTION": 14.03699543, "ECCENTRICITY": 0.0005098, "INCLINATION": 50.0092, "RA_OF_ASC_NODE": 84.0354, "ARG_OF_PERICENTER": 325.7723, "MEAN_ANOMALY": 34.2852, "EPHEMERIS_TYPE": 0, "CLASSIFICATION_TYPE": "U", "NORAD_CAT_ID": 66923, "ELEMENT_SET_NO": 999, "REV_AT_EPOCH": 205, "BSTAR": -6.2481e-06, "MEAN_MOTION_DOT": -1.61e-06, "MEAN_MOTION_DDOT": 0}, "tle": {"line1": "1 66923U 25285J   25354.87890412 -.00000161  00000+0 -62481-5 0  9991", "line2": "2 66923  50.0092  84.0354 0005098 325.7723  34.2852 14.03699543  2054"}}, "geometry": {"type": "Point", "coordinates": [85.43743120013809, 3.0521221155437313]}}, {"type": "Feature", "properties": {"norad_id": 66924, "name": "CZ-8A R/B", "group": "last-30-days", "lat": -49.38803804472505, "lon": -21.487788573656502, "alt_km": 843.9511165917729, "timestamp": "2025-12-21T03:56:49.617368+00:00", "meta": {"OBJECT_NAME": "CZ-8A R/B", "OBJECT_ID": "2025-285K", "EPOCH": "2025-12-20T14:59:57.859008", "MEAN_MOTION": 14.30504628, "ECCENTRICITY": 0.011927, "INCLINATION": 50.0078, "RA_OF_ASC_NODE": 82.5892, "ARG_OF_PERICENTER": 134.5434, "MEAN_ANOMALY": 226.5297, "EPHEMERIS_TYPE": 0, "CLASSIFICATION_TYPE": "U", "NORAD_CAT_ID": 66924, "ELEMENT_SET_NO": 999, "REV_AT_EPOCH": 205, "BSTAR": 4.574e-05, "MEAN_MOTION_DOT": -3.7e-07, "MEAN_MOTION_DDOT": 0}, "tle": {"line1": "1 66924U 25285K   25354.62497522 -.00000037  00000+0  45740-4 0  9999", "line2": "2 66924  50.0078  82.5892 0119270 134.5434 226.5297 14.30504628  2050"}}, "geometry": {"type": "Point", "coordinates": [-21.487788573656502, -49.38803804472505]}}, {"type": "Feature", "properties": {"norad_id": 66925, "name": "STARLINK-35945", "group": "last-30-days", "lat": 18.446234869759778, "lon": 22.660462972184824, "alt_km": 341.7655010082681, "timestamp": "2025-12-21T03:56:49.617378+00:00", "meta": {"OBJECT_NAME": "STARLINK-35945", "OBJECT_ID": "2025-286A", "EPOCH": "2025-12-20T20:00:01.999008", "MEAN_MOTION": 15.76271911, "ECCENTRICITY": 7.29e-05, "INCLINATION": 53.1572, "RA_OF_ASC_NODE": 9.8246, "ARG_OF_PERICENTER": 90.5831, "MEAN_ANOMALY": 213.3976, "EPHEMERIS_TYPE": 0, "CLASSIFICATION_TYPE": "U", "NORAD_CAT_ID": 66925, "ELEMENT_SET_NO": 999, "REV_AT_EPOCH": 329, "BSTAR": -0.0091367, "MEAN_MOTION_DOT": -0.01311831, "MEAN_MOTION_DDOT": 0}, "tle": {"line1": "1 66925U 25286A   25354.83335647 -.01311831  00000+0 -91367-2 0  9996", "line2": "2 66925  53.1572   9.8246 0000729  90.5831 213.3976 15.76271911  3291"}}, "geometry": {"type": "Point", "coordinates": [22.660462972184824, 18.446234869759778]}}, {"type": "Feature", "properties": {"norad_id": 66926, "name": "STARLINK-35942", "group": "last-30-days", "lat": 21.5344451071318, "lon": 25.37856186655298, "alt_km": 341.5321441308415, "timestamp": "2025-12-21T03:56:49.617387+00:00", "meta": {"OBJECT_NAME": "STARLINK-35942", "OBJECT_ID": "2025-286B", "EPOCH": "2025-12-20T20:00:01.999008", "MEAN_MOTION": 15.76114653, "ECCENTRICITY": 0.0001024, "INCLINATION": 53.157, "RA_OF_ASC_NODE": 9.8155, "ARG_OF_PERICENTER": 107.5336, "MEAN_ANOMALY": 200.6139, "EPHEMERIS_TYPE": 0, "CLASSIFICATION_TYPE": "U", "NORAD_CAT_ID": 66926, "ELEMENT_SET_NO": 999, "REV_AT_EPOCH": 329, "BSTAR": -0.0086573, "MEAN_MOTION_DOT": -0.01220738, "MEAN_MOTION_DDOT": 0}, "tle": {"line1": "1 66926U 25286B   25354.83335647 -.01220738  00000+0 -86573-2 0  9995", "line2": "2 66926  53.1570   9.8155 0001024 107.5336 200.6139 15.76114653  3296"}}, "geometry": {"type": "Point", "coordinates": [25.37856186655298, 21.5344451071318]}}, {"type": "Feature", "properties": {"norad_id": 66927, "name": "STARLINK-35943", "group": "last-30-days", "lat": 23.032648425455903, "lon": 26.753425891945287, "alt_km": 341.3262293601938, "timestamp": "2025-12-21T03:56:49.617396+00:00", "meta": {"OBJECT_NAME": "STARLINK-35943", "OBJECT_ID": "2025-286C", "EPOCH": "2025-12-20T20:00:01.999008", "MEAN_MOTION": 15.76084831, "ECCENTRICITY": 0.0001077, "INCLINATION": 53.1575, "RA_OF_ASC_NODE": 9.8117, "ARG_OF_PERICENTER": 104.2436, "MEAN_ANOMALY": 205.9098, "EPHEMERIS_TYPE": 0, "CLASSIFICATION_TYPE": "U", "NORAD_CAT_ID": 66927, "ELEMENT_SET_NO": 999, "REV_AT_EPOCH": 329, "BSTAR": -0.0087347, "MEAN_MOTION_DOT": -0.0122896, "MEAN_MOTION_DDOT": 0}, "tle": {"line1": "1 66927U 25286C   25354.83335647 -.01228960  00000+0 -87347-2 0  9991", "line2": "2 66927  53.1575   9.8117 0001077 104.2436 205.9098 15.76084831  3299"}}, "geometry": {"type": "Point", "coordinates": [26.753425891945287, 23.032648425455903]}}, {"type": "Feature", "properties": {"norad_id": 66928, "name": "STARLINK-35944", "group": "last-30-days", "lat": 20.021211410111047, "lon": 24.028420381814676, "alt_km": 341.6671233972793, "timestamp": "2025-12-21T03:56:49.617408+00:00", "meta": {"OBJECT_NAME": "STARLINK-35944", "OBJECT_ID": "2025-286D", "EPOCH": "2025-12-20T20:00:01.999008", "MEAN_MOTION": 15.76206373, "ECCENTRICITY": 7.54e-05, "INCLINATION": 53.1572, "RA_OF_ASC_NODE": 9.8197, "ARG_OF_PERICENTER": 80.0942, "MEAN_ANOMALY": 226.0197, "EPHEMERIS_TYPE": 0, "CLASSIFICATION_TYPE": "U", "NORAD_CAT_ID": 66928, "ELEMENT_SET_NO": 999, "REV_AT_EPOCH": 329, "BSTAR": -0.0094448, "MEAN_MOTION_DOT": -0.01347792, "MEAN_MOTION_DDOT": 0}, "tle": {"line1": "1 66928U 25286D   25354.83335647 -.01347792  00000+0 -94448-2 0  9997", "line2": "2 66928  53.1572   9.8197 0000754  80.0942 226.0197 15.76206373  3290"}}, "geometry": {"type": "Point", "coordinates": [24.028420381814676, 20.021211410111047]}}]}